[{"OBJECT_NAME":"LIZZIESAT-2 (LS-2)","OBJECT_ID":"2024-247G","EPOCH":"2026-03-09T11:47:37.199328","MEAN_MOTION":15.28222796,"ECCENTRICITY":0.00040927,"INCLINATION":44.9909,"RA_OF_ASC_NODE":117.0823,"ARG_OF_PERICENTER":327.5136,"MEAN_ANOMALY":32.5495,"EPHEMERIS_TYPE":0,"CLASSIFICATION_TYPE":"U","NORAD_CAT_ID":62383,"ELEMENT_SET_NO":999,"REV_AT_EPOCH":6771,"BSTAR":0.00034516624,"MEAN_MOTION_DOT":9.388e-5,"MEAN_MOTION_DDOT":0},{"OBJECT_NAME":"STARLINK-33870","OBJECT_ID":"2025-091V","EPOCH":"2026-03-09T22:32:01.332384","MEAN_MOTION":15.27598284,"ECCENTRICITY":0.00014154,"INCLINATION":43.0044,"RA_OF_ASC_NODE":50.8273,"ARG_OF_PERICENTER":234.1919,"MEAN_ANOMALY":125.8801,"EPHEMERIS_TYPE":0,"CLASSIFICATION_TYPE":"U","NORAD_CAT_ID":63794,"ELEMENT_SET_NO":999,"REV_AT_EPOCH":4894,"BSTAR":0.0011365518,"MEAN_MOTION_DOT":0.00031163,"MEAN_MOTION_DDOT":0}]
